[{"OBJECT_NAME":"STARLINK-4621","OBJECT_ID":"2022-105AE","EPOCH":"2026-03-09T16:00:46.917216","MEAN_MOTION":15.01252403,"ECCENTRICITY":0.00033108,"INCLINATION":97.601,"RA_OF_ASC_NODE":310.1897,"ARG_OF_PERICENTER":33.3535,"MEAN_ANOMALY":326.7897,"EPHEMERIS_TYPE":0,"CLASSIFICATION_TYPE":"U","NORAD_CAT_ID":53676,"ELEMENT_SET_NO":999,"REV_AT_EPOCH":19323,"BSTAR":-7.6560656e-5,"MEAN_MOTION_DOT":-1.041e-5,"MEAN_MOTION_DDOT":0},{"OBJECT_NAME":"CZ-6A DEB","OBJECT_ID":"2024-140RN","EPOCH":"2026-03-09T09:36:23.350464","MEAN_MOTION":14.99974811,"ECCENTRICITY":0.0047719,"INCLINATION":88.1445,"RA_OF_ASC_NODE":217.6461,"ARG_OF_PERICENTER":172.1525,"MEAN_ANOMALY":188.0467,"EPHEMERIS_TYPE":0,"CLASSIFICATION_TYPE":"U","NORAD_CAT_ID":61168,"ELEMENT_SET_NO":999,"REV_AT_EPOCH":8322,"BSTAR":0.0063622011,"MEAN_MOTION_DOT":0.00081758,"MEAN_MOTION_DDOT":0}]
